PHISAT 2                
1 60470U 24149C   26068.78834181  .00008925  00000+0  31421-3 0  9996
2 60470  97.3806 148.6498 0001175 168.6230 191.5037 15.29548631 86792
STARLINK-34905          
1 65202U 25176E   26068.52872916  .00022889  00000+0  78295-3 0  9990
2 65202  53.1576 153.6311 0001076  82.6433 277.4690 15.30183078 33090
