[{"OBJECT_NAME":"PHISAT 2","OBJECT_ID":"2024-149C","EPOCH":"2026-03-09T18:55:12.732384","MEAN_MOTION":15.29548632,"ECCENTRICITY":0.00011753,"INCLINATION":97.3806,"RA_OF_ASC_NODE":148.6498,"ARG_OF_PERICENTER":168.623,"MEAN_ANOMALY":191.5037,"EPHEMERIS_TYPE":0,"CLASSIFICATION_TYPE":"U","NORAD_CAT_ID":60470,"ELEMENT_SET_NO":999,"REV_AT_EPOCH":8679,"BSTAR":0.00031420974,"MEAN_MOTION_DOT":8.925e-5,"MEAN_MOTION_DDOT":0},{"OBJECT_NAME":"STARLINK-34905","OBJECT_ID":"2025-176E","EPOCH":"2026-03-09T12:41:22.199424","MEAN_MOTION":15.30183078,"ECCENTRICITY":0.00010764,"INCLINATION":53.1576,"RA_OF_ASC_NODE":153.6311,"ARG_OF_PERICENTER":82.6433,"MEAN_ANOMALY":277.469,"EPHEMERIS_TYPE":0,"CLASSIFICATION_TYPE":"U","NORAD_CAT_ID":65202,"ELEMENT_SET_NO":999,"REV_AT_EPOCH":3309,"BSTAR":0.00078295387,"MEAN_MOTION_DOT":0.00022889,"MEAN_MOTION_DDOT":0}]
